COSMOS 2433 (720)       
1 32275U 07052A   22033.77781855 -.00000069  00000+0  00000+0 0  9995
2 32275  66.0832   9.1382 0004960 267.6189 354.4664  2.13104175111095
COSMOS 2432 (719)       
1 32276U 07052B   22033.78081608 -.00000069  00000+0  00000+0 0  9996
2 32276  66.0960   9.2363 0011945 319.4258 253.6137  2.13103500111098
COSMOS 2434 (721)       
1 32393U 07065A   22033.63058678  .00000051  00000+0  00000+0 0  9995
2 32393  64.4084 246.0318 0004820  72.6728 325.5305  2.13103115109806
COSMOS 2436 (723)       
1 32395U 07065C   22034.79648297  .00000042  00000+0  00000+0 0  9997
2 32395  64.4166 246.0481 0016570   6.2106 342.3910  2.13102958109755
COSMOS 2456 (730)       
1 36111U 09070A   22033.70717407  .00000004  00000+0  00000+0 0  9993
2 36111  64.3211 125.6814 0002912 308.2752 316.1447  2.13099112 94466
COSMOS 2457 (733)       
1 36112U 09070B   22034.64167985  .00000005  00000+0  00000+0 0  9999
2 36112  64.3039 125.5281 0005715 165.3737 222.1889  2.13101335 94491
COSMOS 2461 (735)       
1 36401U 10007B   22033.91433384 -.00000070  00000+0  00000+0 0  9993
2 36401  65.9712   7.9906 0020705 359.4345 224.9328  2.13103751 92828
COSMOS 2460 (732)       
1 36402U 10007C   22034.42694324 -.00000070  00000+0  00000+0 0  9994
2 36402  65.9572   7.9257 0002459 292.0722 272.7012  2.13106471 92833
COSMOS 2464 (736)       
1 37139U 10041C   22033.48495405  .00000052  00000+0  00000+0 0  9993
2 37139  64.0074 245.1800 0030257  13.3014 132.4119  2.13100837 88872
COSMOS 2476 (744)       
1 37867U 11064A   22034.42626992  .00000006  00000+0  00000+0 0  9998
2 37867  64.6121 126.9603 0021292 234.2918 126.1267  2.13101868 79837
COSMOS 2477 (745)       
1 37868U 11064B   22034.64616828  .00000006  00000+0  00000+0 0  9990
2 37868  64.6199 127.0161 0018498 234.7802 112.5333  2.13101623 79781
COSMOS 2475 (743)       
1 37869U 11064C   22033.46879015  .00000003  00000+0  00000+0 0  9996
2 37869  64.6274 127.0629 0022250 254.3504 227.6227  2.13101778 79773
COSMOS 2485 (747)       
1 39155U 13019A   22034.79923285  .00000006  00000+0  00000+0 0  9997
2 39155  64.7769 127.3470 0021800 230.3329 100.6370  2.13101806 68307
COSMOS 2492 (754)       
1 39620U 14012A   22033.85604992 -.00000071  00000+0  00000+0 0  9998
2 39620  65.8450   7.6460 0015177 317.9856  44.0003  2.13103243 61246
COSMOS 2500 (755)       
1 40001U 14032A   22033.84793047 -.00000071  00000+0  00000+0 0  9994
2 40001  65.7847   7.5167 0006994 225.2107 349.5595  2.13102454 59452
COSMOS 2501 (702K)      
1 40315U 14075A   22033.78450007  .00000048  00000+0  00000+0 0  9991
2 40315  63.7168 245.8899 0016145 206.5644 126.8932  2.13101396 55855
COSMOS 2514 (751)       
1 41330U 16008A   22034.50786220 -.00000071  00000+0  00000+0 0  9994
2 41330  65.5848   7.2196 0010826 226.5278 318.1013  2.13102809 46635
COSMOS 2516 (753)       
1 41554U 16032A   22031.62845293  .00000078  00000+0  00000+0 0  9991
2 41554  63.9424 246.2026 0011938 214.5376 181.1718  2.13106093 44180
COSMOS 2522 (752)       
1 42939U 17055A   22034.34669361  .00000044  00000+0  00000+0 0  9990
2 42939  64.1762 246.4632 0005080 248.5224 291.5257  2.13102029 33997
COSMOS 2527 (756)       
1 43508U 18053A   22034.54066123  .00000006  00000+0  00000+0 0  9999
2 43508  64.9395 127.3279 0008095 224.9945 135.9674  2.13102549 28299
COSMOS 2529 (757)       
1 43687U 18086A   22034.42511756  .00000043  00000+0  00000+0 0  9998
2 43687  64.3902 246.7414 0007733 278.2663 277.4614  2.13102092 25307
COSMOS 2534 (758)       
1 44299U 19030A   22031.63469054  .00000078  00000+0  00000+0 0  9999
2 44299  64.4624 246.7087 0011161 298.2473  51.4164  2.13101970 20888
COSMOS 2544 (759)       
1 44850U 19088A   22033.90676645  .00000005  00000+0  00000+0 0  9993
2 44850  64.9247 127.2047 0011871 256.5005  21.7257  2.13102338 16700
COSMOS 2545 (760)       
1 45358U 20018A   22033.50824218 -.00000072  00000+0  00000+0 0  9994
2 45358  64.9218   7.9730 0010889 257.3486 284.8244  2.13102714 14653
COSMOS 2547 (705K)      
1 46805U 20075A   22033.85077742  .00000049  00000+0  00000+0 0  9998
2 46805  64.6850 246.0177 0005326 250.7900  46.2076  2.13102955  9901
